OBJECT_NAME,OBJECT_ID,EPOCH,MEAN_MOTION,ECCENTRICITY,INCLINATION,RA_OF_ASC_NODE,ARG_OF_PERICENTER,MEAN_ANOMALY,EPHEMERIS_TYPE,CLASSIFICATION_TYPE,NORAD_CAT_ID,ELEMENT_SET_NO,REV_AT_EPOCH,BSTAR,MEAN_MOTION_DOT,MEAN_MOTION_DDOT
CBERS 4A,2019-093E,2026-07-02T14:59:47.912640,14.81428466,.00007292,98.0189,251.0782,128.1445,231.9833,0,U,44883,999,35336,.23423377E-3,.178E-4,0
WEILAI 1R,2019-093F,2026-07-02T14:09:58.830336,15.00777569,.00169534,97.7880,273.5016,349.7399,10.3476,0,U,44884,999,35473,.45751105E-3,.5763E-4,0
FLORIPASAT-1,2019-093G,2026-07-02T12:40:23.043072,15.04045348,.00119335,97.7945,277.8719,25.6370,334.5445,0,U,44885,999,35495,.57189345E-3,.7864E-4,0
SHUNTIAN,2019-093H,2026-07-02T14:24:18.925920,14.95237036,.00121103,97.8020,271.6831,22.4146,337.7601,0,U,44886,999,35448,.46855751E-3,.5104E-4,0
ELEKTRO-L 3,2019-095A,2026-07-02T14:20:33.116928,1.00272562,.00016685,0.2953,81.9498,6.9254,122.8845,0,U,44903,999,2386,0,-.86E-6,0
GONETS-M 14,2019-096A,2026-07-02T15:57:23.103936,12.42871131,.00141396,82.5235,75.0457,115.7426,244.5115,0,U,44905,999,29560,.17259694E-2,.249E-5,0
GONETS-M 15,2019-096B,2026-07-02T14:43:47.192160,12.42872334,.00156114,82.5254,75.5413,138.1285,222.0992,0,U,44906,999,29556,.1217145E-2,.179E-5,0
GONETS-M 16,2019-096C,2026-07-02T15:21:09.916704,12.42892478,.00104183,82.5200,74.4703,178.6928,181.4180,0,U,44907,999,29555,.10560497E-2,.156E-5,0
RS-44 & BREEZE-KM R/B,2019-096E,2026-07-02T09:45:52.192512,12.79748910,.02185299,82.5226,329.5910,108.7415,253.7536,0,U,44909,999,30429,-.3347535E-4,.5E-7,0
JILIN-1 KUANFU 01,2020-003A,2026-07-02T12:27:44.419104,15.10808059,.00082232,97.5024,257.1758,244.7400,115.2978,0,U,45016,999,35764,.18152445E-3,.2954E-4,0
XINGYUN-2 01,2020-028A,2026-07-02T15:06:46.812672,15.11872122,.0010165,97.4869,175.7248,140.7704,219.4265,0,U,45602,999,33717,.1611104E-3,.2695E-4,0
XINGYUN-2 02,2020-028B,2026-07-02T14:39:57.287808,15.11596724,.00098305,97.5068,189.3315,210.6045,149.4613,0,U,45603,999,33716,.71846851E-4,.1157E-4,0
HAIYANG-1D,2020-036A,2026-07-02T14:25:11.106336,14.34177663,.00039899,98.4562,124.9460,95.4089,264.7552,0,U,45721,999,31718,.24509879E-4,.26E-6,0
M2 PATHFINDER,2020-037E,2026-07-02T11:23:45.045024,15.04746846,.00128587,97.8146,14.8778,100.9984,259.2689,0,U,45727,999,32779,.25081493E-3,.3477E-4,0
GAOFEN DUOMO (GFDM),2020-042A,2026-07-02T15:42:44.074656,14.76901210,.00117359,97.7739,242.9781,29.9020,330.2858,0,U,45856,999,32329,.13881478E-3,.928E-5,0
ZIYUAN 3-03 (ZY 3-03),2020-051A,2026-07-02T15:23:25.791072,15.21383564,.00020714,97.2829,250.8664,255.2052,104.8955,0,U,45939,999,32969,.32550231E-3,.7234E-4,0
NEMO-HD,2020-061F,2026-07-02T14:40:56.803584,15.44909290,.00014771,97.1908,245.4113,73.4986,286.6425,0,U,46277,999,32436,.24207807E-3,.11294E-3,0
NAPA-1,2020-061BA,2026-07-02T14:19:28.641792,15.70160032,.00018385,97.2448,258.3044,182.8286,177.2967,0,U,46320,999,32415,.64308667E-3,.78144E-3,0
JILIN-1 GAOFEN 3E,2020-065D,2026-07-02T13:43:44.813280,15.65613122,.00120185,97.2224,236.5558,110.7072,249.5478,0,U,46457,999,32216,.702478E-3,.7119E-3,0
JILIN-1 GAOFEN 3F,2020-065E,2026-07-02T15:00:13.396320,15.62594821,.00134865,97.2179,233.8691,98.3609,261.9179,0,U,46458,999,32211,.6792038E-3,.61105E-3,0
JILIN-1 GAOFEN 3G,2020-065F,2026-07-02T13:06:43.789824,15.74261504,.00050283,97.2239,240.8625,351.6294,8.4886,0,U,46459,999,32235,.74499207E-3,.108062E-2,0
JILIN-1 GAOFEN 3H,2020-065G,2026-07-02T14:50:21.106176,15.70188464,.00043557,97.2185,237.1653,253.0354,107.0431,0,U,46460,999,32230,.73782201E-3,.89939E-3,0
HAIYANG-2C,2020-066A,2026-07-02T15:17:03.039072,13.83376726,.00082769,65.9947,176.8174,237.5953,122.4315,0,U,46469,999,29163,-.81540032E-4,-.171E-5,0
HJ-2A,2020-067A,2026-07-02T14:47:23.764128,14.76535825,.00030396,97.8830,261.6238,195.5256,164.5862,0,U,46478,999,31053,.1171511E-3,.767E-5,0
HJ-2B,2020-067B,2026-07-02T15:39:52.172352,14.76579359,.00016298,97.8894,262.6941,100.2641,259.8753,0,U,46479,999,31054,.18815959E-3,.1263E-4,0
GONETS-M 17,2020-068A,2026-07-02T15:57:35.840160,12.42873205,.00223866,82.4997,337.8718,4.3953,355.7319,0,U,46486,999,26108,-.7100717E-3,-.89E-6,0
GONETS-M 18,2020-068B,2026-07-02T15:05:15.347904,12.42873947,.00196381,82.4951,337.0064,1.1618,358.9504,0,U,46487,999,26106,-.55605358E-3,-.67E-6,0
