CBERS 4A                
1 44883U 19093E   26183.62486010  .00001780  00000+0  23423-3 0  9998
2 44883  98.0189 251.0782 0000729 128.1445 231.9833 14.81428466353365
WEILAI 1R               
1 44884U 19093F   26183.59026424  .00005763  00000+0  45751-3 0  9997
2 44884  97.7880 273.5016 0016953 349.7399  10.3476 15.00777569354731
FLORIPASAT-1            
1 44885U 19093G   26183.52804448  .00007864  00000+0  57189-3 0  9993
2 44885  97.7945 277.8719 0011933  25.6370 334.5445 15.04045348354951
SHUNTIAN                
1 44886U 19093H   26183.60021905  .00005104  00000+0  46856-3 0  9996
2 44886  97.8020 271.6831 0012110  22.4146 337.7601 14.95237036354481
ELEKTRO-L 3             
1 44903U 19095A   26183.59760552 -.00000086  00000+0  00000+0 0  9996
2 44903   0.2953  81.9498 0001668   6.9254 122.8845  1.00272562 23861
GONETS-M 14             
1 44905U 19096A   26183.66485074  .00000249  00000+0  17260-2 0  9999
2 44905  82.5235  75.0457 0014139 115.7426 244.5115 12.42871131295605
GONETS-M 15             
1 44906U 19096B   26183.61374065  .00000179  00000+0  12171-2 0  9990
2 44906  82.5254  75.5413 0015611 138.1285 222.0992 12.42872334295567
GONETS-M 16             
1 44907U 19096C   26183.63969811  .00000156  00000+0  10560-2 0  9997
2 44907  82.5200  74.4703 0010418 178.6928 181.4180 12.42892478295559
RS-44 & BREEZE-KM R/B   
1 44909U 19096E   26183.40685408  .00000005  00000+0 -33475-4 0  9997
2 44909  82.5226 329.5910 0218529 108.7415 253.7536 12.79748910304292
JILIN-1 KUANFU 01       
1 45016U 20003A   26183.51926411  .00002954  00000+0  18152-3 0  9999
2 45016  97.5024 257.1758 0008223 244.7400 115.2978 15.10808059357641
XINGYUN-2 01            
1 45602U 20028A   26183.62970848  .00002695  00000+0  16111-3 0  9997
2 45602  97.4869 175.7248 0010165 140.7704 219.4265 15.11872122337172
XINGYUN-2 02            
1 45603U 20028B   26183.61107972  .00001157  00000+0  71847-4 0  9997
2 45603  97.5068 189.3315 0009830 210.6045 149.4613 15.11596724337162
HAIYANG-1D              
1 45721U 20036A   26183.60082299  .00000026  00000+0  24510-4 0  9999
2 45721  98.4562 124.9460 0003989  95.4089 264.7552 14.34177663317188
M2 PATHFINDER           
1 45727U 20037E   26183.47482691  .00003477  00000+0  25081-3 0  9997
2 45727  97.8146  14.8778 0012858 100.9984 259.2689 15.04746846327796
GAOFEN DUOMO (GFDM)     
1 45856U 20042A   26183.65467679  .00000928  00000+0  13881-3 0  9998
2 45856  97.7739 242.9781 0011735  29.9020 330.2858 14.76901210323293
ZIYUAN 3-03 (ZY 3-03)   
1 45939U 20051A   26183.64127073  .00007234  00000+0  32550-3 0  9991
2 45939  97.2829 250.8664 0002071 255.2052 104.8955 15.21383564329690
NEMO-HD                 
1 46277U 20061F   26183.61176856  .00011294  00000+0  24208-3 0  9990
2 46277  97.1908 245.4113 0001477  73.4986 286.6425 15.44909290324362
NAPA-1                  
1 46320U 20061BA  26183.59685928  .00078144  00000+0  64309-3 0  9994
2 46320  97.2448 258.3044 0001838 182.8286 177.2967 15.70160032324151
JILIN-1 GAOFEN 3E       
1 46457U 20065D   26183.57204645  .00071190  00000+0  70248-3 0  9993
2 46457  97.2224 236.5558 0012018 110.7072 249.5478 15.65613122322163
JILIN-1 GAOFEN 3F       
1 46458U 20065E   26183.62515505  .00061105  00000+0  67920-3 0  9998
2 46458  97.2179 233.8691 0013486  98.3609 261.9179 15.62594821322110
JILIN-1 GAOFEN 3G       
1 46459U 20065F   26183.54634016  .00108062  00000+0  74499-3 0  9992
2 46459  97.2239 240.8625 0005028 351.6294   8.4886 15.74261504322358
JILIN-1 GAOFEN 3H       
1 46460U 20065G   26183.61829984  .00089939  00000+0  73782-3 0  9997
2 46460  97.2185 237.1653 0004355 253.0354 107.0431 15.70188464322300
HAIYANG-2C              
1 46469U 20066A   26183.63684073 -.00000171  00000+0 -81540-4 0  9992
2 46469  65.9947 176.8174 0008276 237.5953 122.4315 13.83376726291637
HJ-2A                   
1 46478U 20067A   26183.61624727  .00000767  00000+0  11715-3 0  9996
2 46478  97.8830 261.6238 0003039 195.5256 164.5862 14.76535825310532
HJ-2B                   
1 46479U 20067B   26183.65268718  .00001263  00000+0  18816-3 0  9996
2 46479  97.8894 262.6941 0001629 100.2641 259.8753 14.76579359310547
GONETS-M 17             
1 46486U 20068A   26183.66499815 -.00000089  00000+0 -71007-3 0  9998
2 46486  82.4997 337.8718 0022386   4.3953 355.7319 12.42873205261085
GONETS-M 18             
1 46487U 20068B   26183.62864986 -.00000067  00000+0 -55605-3 0  9992
2 46487  82.4951 337.0064 0019638   1.1618 358.9504 12.42873947261063
